[{"OBJECT_NAME":"IRIDIUM 173","OBJECT_ID":"2019-002D","EPOCH":"2024-10-29T13:44:54.569184","MEAN_MOTION":14.34222229,"ECCENTRICITY":0.0002066,"INCLINATION":86.397,"RA_OF_ASC_NODE":242.4256,"ARG_OF_PERICENTER":82.1059,"MEAN_ANOMALY":278.0371,"EPHEMERIS_TYPE":0,"CLASSIFICATION_TYPE":"U","NORAD_CAT_ID":43925,"ELEMENT_SET_NO":999,"REV_AT_EPOCH":30359,"BSTAR":0.00053786,"MEAN_MOTION_DOT":1.526e-5,"MEAN_MOTION_DDOT":0},{"OBJECT_NAME":"IRIDIUM 169","OBJECT_ID":"2019-002E","EPOCH":"2024-10-29T22:11:08.528928","MEAN_MOTION":14.38612344,"ECCENTRICITY":0.0003526,"INCLINATION":86.418,"RA_OF_ASC_NODE":273.9155,"ARG_OF_PERICENTER":111.681,"MEAN_ANOMALY":248.4764,"EPHEMERIS_TYPE":0,"CLASSIFICATION_TYPE":"U","NORAD_CAT_ID":43926,"ELEMENT_SET_NO":999,"REV_AT_EPOCH":30464,"BSTAR":0.00057251,"MEAN_MOTION_DOT":1.771e-5,"MEAN_MOTION_DDOT":0},{"OBJECT_NAME":"IRIDIUM 172","OBJECT_ID":"2019-002F","EPOCH":"2024-10-29T08:34:22.505952","MEAN_MOTION":14.34223743,"ECCENTRICITY":0.0002143,"INCLINATION":86.3968,"RA_OF_ASC_NODE":242.5216,"ARG_OF_PERICENTER":83.7446,"MEAN_ANOMALY":276.3994,"EPHEMERIS_TYPE":0,"CLASSIFICATION_TYPE":"U","NORAD_CAT_ID":43927,"ELEMENT_SET_NO":999,"REV_AT_EPOCH":30356,"BSTAR":0.00038479,"MEAN_MOTION_DOT":1.098e-5,"MEAN_MOTION_DDOT":0},{"OBJECT_NAME":"IRIDIUM 175","OBJECT_ID":"2019-002G","EPOCH":"2024-10-29T16:31:20.481600","MEAN_MOTION":14.72275812,"ECCENTRICITY":0.0002975,"INCLINATION":86.1563,"RA_OF_ASC_NODE":208.0016,"ARG_OF_PERICENTER":86.6482,"MEAN_ANOMALY":273.5074,"EPHEMERIS_TYPE":0,"CLASSIFICATION_TYPE":"U","NORAD_CAT_ID":43928,"ELEMENT_SET_NO":999,"REV_AT_EPOCH":31162,"BSTAR":0.00086063,"MEAN_MOTION_DOT":5.458e-5,"MEAN_MOTION_DDOT":0},{"OBJECT_NAME":"IRIDIUM 171","OBJECT_ID":"2019-002H","EPOCH":"2024-10-30T02:32:06.389664","MEAN_MOTION":14.342247,"ECCENTRICITY":0.0002346,"INCLINATION":86.3981,"RA_OF_ASC_NODE":242.4494,"ARG_OF_PERICENTER":72.9499,"MEAN_ANOMALY":287.1954,"EPHEMERIS_TYPE":0,"CLASSIFICATION_TYPE":"U","NORAD_CAT_ID":43929,"ELEMENT_SET_NO":999,"REV_AT_EPOCH":30366,"BSTAR":0.00049091,"MEAN_MOTION_DOT":1.395e-5,"MEAN_MOTION_DDOT":0},{"OBJECT_NAME":"IRIDIUM 170","OBJECT_ID":"2019-002J","EPOCH":"2024-10-29T08:38:44.483712","MEAN_MOTION":14.72283456,"ECCENTRICITY":0.0002136,"INCLINATION":86.6099,"RA_OF_ASC_NODE":242.5564,"ARG_OF_PERICENTER":82.7362,"MEAN_ANOMALY":277.4098,"EPHEMERIS_TYPE":0,"CLASSIFICATION_TYPE":"U","NORAD_CAT_ID":43930,"ELEMENT_SET_NO":999,"REV_AT_EPOCH":31159,"BSTAR":0.0006926,"MEAN_MOTION_DOT":4.397e-5,"MEAN_MOTION_DDOT":0},{"OBJECT_NAME":"IRIDIUM 167","OBJECT_ID":"2019-002K","EPOCH":"2024-10-29T18:00:36.306144","MEAN_MOTION":14.34232797,"ECCENTRICITY":0.0002339,"INCLINATION":86.3972,"RA_OF_ASC_NODE":242.3745,"ARG_OF_PERICENTER":77.9959,"MEAN_ANOMALY":282.1499,"EPHEMERIS_TYPE":0,"CLASSIFICATION_TYPE":"U","NORAD_CAT_ID":43931,"ELEMENT_SET_NO":999,"REV_AT_EPOCH":30361,"BSTAR":0.00031687,"MEAN_MOTION_DOT":9.08e-6,"MEAN_MOTION_DDOT":0},{"OBJECT_NAME":"IRIDIUM 181","OBJECT_ID":"2023-068S","EPOCH":"2024-10-30T01:35:53.598048","MEAN_MOTION":14.43578505,"ECCENTRICITY":0.000247,"INCLINATION":86.858,"RA_OF_ASC_NODE":302.5575,"ARG_OF_PERICENTER":81.4613,"MEAN_ANOMALY":278.6868,"EPHEMERIS_TYPE":0,"CLASSIFICATION_TYPE":"U","NORAD_CAT_ID":56726,"ELEMENT_SET_NO":999,"REV_AT_EPOCH":7659,"BSTAR":0.00020776,"MEAN_MOTION_DOT":7.23e-6,"MEAN_MOTION_DDOT":0},{"OBJECT_NAME":"IRIDIUM 177","OBJECT_ID":"2023-068T","EPOCH":"2024-10-29T06:42:03.438144","MEAN_MOTION":14.80255211,"ECCENTRICITY":0.0003242,"INCLINATION":86.1958,"RA_OF_ASC_NODE":251.6619,"ARG_OF_PERICENTER":87.9825,"MEAN_ANOMALY":272.1767,"EPHEMERIS_TYPE":0,"CLASSIFICATION_TYPE":"U","NORAD_CAT_ID":56727,"ELEMENT_SET_NO":999,"REV_AT_EPOCH":7821,"BSTAR":0.00085303,"MEAN_MOTION_DOT":6.516e-5,"MEAN_MOTION_DDOT":0},{"OBJECT_NAME":"IRIDIUM 174","OBJECT_ID":"2023-068U","EPOCH":"2024-10-29T06:34:11.499744","MEAN_MOTION":14.80271547,"ECCENTRICITY":0.0002931,"INCLINATION":86.1964,"RA_OF_ASC_NODE":251.7789,"ARG_OF_PERICENTER":81.4525,"MEAN_ANOMALY":278.7029,"EPHEMERIS_TYPE":0,"CLASSIFICATION_TYPE":"U","NORAD_CAT_ID":56728,"ELEMENT_SET_NO":999,"REV_AT_EPOCH":7821,"BSTAR":0.00086991,"MEAN_MOTION_DOT":6.647e-5,"MEAN_MOTION_DDOT":0},{"OBJECT_NAME":"IRIDIUM 178","OBJECT_ID":"2023-068V","EPOCH":"2024-10-29T19:25:11.723808","MEAN_MOTION":14.80216263,"ECCENTRICITY":0.0002933,"INCLINATION":86.5723,"RA_OF_ASC_NODE":275.3756,"ARG_OF_PERICENTER":78.6873,"MEAN_ANOMALY":281.4677,"EPHEMERIS_TYPE":0,"CLASSIFICATION_TYPE":"U","NORAD_CAT_ID":56729,"ELEMENT_SET_NO":999,"REV_AT_EPOCH":7829,"BSTAR":0.00029163,"MEAN_MOTION_DOT":2.241e-5,"MEAN_MOTION_DDOT":0},{"OBJECT_NAME":"IRIDIUM 179","OBJECT_ID":"2023-068W","EPOCH":"2024-10-28T23:49:14.074464","MEAN_MOTION":14.80251139,"ECCENTRICITY":0.0003054,"INCLINATION":86.6732,"RA_OF_ASC_NODE":281.5486,"ARG_OF_PERICENTER":92.939,"MEAN_ANOMALY":267.2181,"EPHEMERIS_TYPE":0,"CLASSIFICATION_TYPE":"U","NORAD_CAT_ID":56730,"ELEMENT_SET_NO":999,"REV_AT_EPOCH":7817,"BSTAR":0.00033304,"MEAN_MOTION_DOT":2.558e-5,"MEAN_MOTION_DDOT":0}]